{
    "links": {
        "self": "http://www.neowsapp.com/rest/v1/neo/3827158?api_key=iIulBulltgU6a56xZRHN4H3l9WmuAYTsLGpBGhQ2"
    },
    "id": "3827158",
    "neo_reference_id": "3827158",
    "name": "(2018 RO)",
    "designation": "2018 RO",
    "nasa_jpl_url": "http://ssd.jpl.nasa.gov/sbdb.cgi?sstr=3827158",
    "absolute_magnitude_h": 26.0,
    "estimated_diameter": {
        "kilometers": {
            "estimated_diameter_min": 0.0167708462,
            "estimated_diameter_max": 0.0375007522
        },
        "meters": {
            "estimated_diameter_min": 16.7708462163,
            "estimated_diameter_max": 37.5007521798
        },
        "miles": {
            "estimated_diameter_min": 0.0104209175,
            "estimated_diameter_max": 0.0233018799
        },
        "feet": {
            "estimated_diameter_min": 55.0224631002,
            "estimated_diameter_max": 123.0339677816
        }
    },
    "is_potentially_hazardous_asteroid": false,
    "close_approach_data": [
        {
            "close_approach_date": "2018-09-05",
            "close_approach_date_full": "2018-Sep-05 07:32",
            "epoch_date_close_approach": 1536132720000,
            "relative_velocity": {
                "kilometers_per_second": "6.4126768843",
                "kilometers_per_hour": "23085.6367833522",
                "miles_per_hour": "14344.5169224113"
            },
            "miss_distance": {
                "astronomical": "0.014973876",
                "lunar": "5.824837764",
                "kilometers": "2240059.95524412",
                "miles": "1391908.712524056"
            },
            "orbiting_body": "Earth"
        }
    ],
    "orbital_data": {
        "orbit_id": "4",
        "orbit_determination_date": "2018-10-03 06:27:28",
        "first_observation_date": "2018-09-05",
        "last_observation_date": "2018-09-21",
        "data_arc_in_days": 16,
        "observations_used": 31,
        "orbit_uncertainty": "7",
        "minimum_orbit_intersection": ".0042974",
        "jupiter_tisserand_invariant": "3.922",
        "epoch_osculation": "2459000.5",
        "eccentricity": ".4430928124452225",
        "semi_major_axis": "1.81668672121987",
        "inclination": "3.225350810788625",
        "ascending_node_longitude": "328.7363234926731",
        "orbital_period": "894.3726079565457",
        "perihelion_distance": "1.011725892582668",
        "perihelion_argument": "9.413911451108486",
        "aphelion_distance": "2.621647549857072",
        "perihelion_time": "2459257.828075835810",
        "mean_anomaly": "256.421126411116",
        "mean_motion": ".4025167998185059",
        "equinox": "J2000",
        "orbit_class": {
            "orbit_class_type": "APO",
            "orbit_class_description": "Near-Earth asteroid orbits which cross the Earth’s orbit similar to that of 1862 Apollo",
            "orbit_class_range": "a (semi-major axis) > 1.0 AU; q (perihelion) < 1.017 AU"
        }
    },
    "is_sentry_object": false
}